2024-173A               
1 61227U 24173A   24297.54151716  .00037435  00000+0  14347-2 0  9991
2 61227  97.4045  10.0489 0011813 166.3961 193.7598 15.26355464  4475
2024-173B               
1 61228U 24173B   24297.53474835  .00041522  00000+0  15645-2 0  9995
2 61228  97.4011  10.0459 0012653 171.6759 188.4692 15.26885553  4476
2024-173C               
1 61229U 24173C   24297.47410419  .00034144  00000+0  13090-2 0  9991
2 61229  97.4020   9.9772 0012332 171.2848 188.8607 15.26359431  4461
2024-173D               
1 61230U 24173D   24297.53656164  .00035217  00000+0  13371-2 0  9993
2 61230  97.4028  10.0490 0012207 174.0132 186.1255 15.26675636  4478
2024-173E               
1 61231U 24173E   24297.29375181 -.00000004  00000+0  27607-5 0  9991
2 61231  97.3958   9.7373 0012137 168.2128 191.9396 15.24129661  4376
2024-173F               
1 61232U 24173F   24297.53542918  .00035451  00000+0  13454-2 0  9998
2 61232  97.4034  10.0523 0012581 173.6378 186.5022 15.26684424  4433
2024-173G               
1 61233U 24173G   24297.52695338  .00045904  00000+0  16970-2 0  9993
2 61233  97.4016  10.0575 0012466 177.1138 183.0175 15.27492904  4438
2024-173H               
1 61234U 24173H   24297.52319046  .00052730  00000+0  19251-2 0  9993
2 61234  97.4030  10.0679 0012529 178.1752 181.9535 15.27868388  4433
2024-173K               
1 61236U 24173K   24297.50010127  .00047303  00000+0  16751-2 0  9993
2 61236  97.4380  10.2474 0020642 195.6029 164.4577 15.28769205  4491
2024-173L               
1 61237U 24173L   24297.38624438  .00041522  00000+0  98365-3 0  9995
2 61237  97.6750  11.5573 0085103 210.2890 149.3421 15.37868715  4533
2024-174A               
1 61238U 24174A   24297.52657839  .00008558  00000+0  43516-3 0  9994
2 61238  97.4565 302.3401 0015215 181.9181 178.1996 15.16992068  4332
2024-174B               
1 61239U 24174B   24297.52695245  .00011937  00000+0  60403-3 0  9997
2 61239  97.4555 302.3364 0015764 178.5889 181.5392 15.17062765  4326
2024-174C               
1 61240U 24174C   24297.53588109  .00011586  00000+0  59567-3 0  9999
2 61240  97.4510 302.3074 0015276 173.4155 186.7281 15.16517078  4296
2024-174D               
1 61241U 24174D   24297.53039910  .00011773  00000+0  59905-3 0  9995
2 61241  97.4530 302.3225 0015469 175.8909 184.2454 15.16873943  4295
2024-174E               
1 61242U 24174E   24297.53046114  .00010413  00000+0  53119-3 0  9991
2 61242  97.4576 302.3381 0016422 176.9030 183.2308 15.16806656  4289
STARLINK-11300 [DTC]    
1 61243U 24175A   24297.40543836 -.00018576  00000+0 -10944-3 0  9991
2 61243  53.1550  13.3394 0001906  57.7359 302.3846 15.76786846  5517
STARLINK-11276 [DTC]    
1 61244U 24175B   24297.46397788  .00007422  00000+0  49291-4 0  9995
2 61244  53.1538  12.9958 0001174  68.5896 291.5250 15.76734030  5367
STARLINK-11280 [DTC]    
1 61245U 24175C   24297.39082365  .00000693  00000+0  82301-5 0  9993
2 61245  53.1532  13.2489 0001043  95.8242 264.2898 15.76726478  5618
STARLINK-11308 [DTC]    
1 61246U 24175D   24297.45908772  .00023230  00000+0  14537-3 0  9996
2 61246  53.1545  12.9609 0001305  80.8645 279.2523 15.76754938  5360
STARLINK-11305 [DTC]    
1 61247U 24175E   24297.41667824 -.00037670  00000+0 -22711-3 0  9991
2 61247  53.1538  13.0585 0001063  72.2301 102.4178 15.76735588  5670
STARLINK-11317 [DTC]    
1 61248U 24175F   24297.38106613  .00008913  00000+0  58514-4 0  9999
2 61248  53.1540  13.1800 0002075 126.8664 233.2547 15.76684498  5459
STARLINK-11293 [DTC]    
1 61249U 24175G   24297.50293945 -.00009352  00000+0 -53273-4 0  9996
2 61249  53.1547  12.5162 0001461  85.2666 274.8522 15.76698640  5682
STARLINK-11334 [DTC]    
1 61250U 24175H   24297.41667824 -.00029602  00000+0 -20239-3 0  9994
2 61250  53.1605  12.5951 0000906 136.6590 270.7309 15.73746670  5362
STARLINK-11319 [DTC]    
1 61251U 24175J   24297.54643064 -.00242940  00000+0 -14929-2 0  9999
2 61251  53.1619  12.0796 0001526  82.4775 277.6420 15.77176150  5692
STARLINK-11318 [DTC]    
1 61252U 24175K   24296.91668981 -.00903378  00000+0 -65239-2 0  9994
2 61252  53.1613  15.0900 0000921  61.1469  22.5055 15.75329874  5275
STARLINK-11311 [DTC]    
1 61253U 24175L   24297.58334491 -.00861114  00000+0 -70530-2 0  9996
2 61253  53.1603  11.6954 0001306  63.2972 241.0451 15.72311204  5651
STARLINK-11306 [DTC]    
1 61254U 24175M   24297.41667824 -.00868300  00000+0 -73043-2 0  9994
2 61254  53.1597  12.4517 0001304  65.5670  46.6720 15.71707227  5679
STARLINK-11313 [DTC]    
1 61255U 24175N   24297.58334491 -.00687463  00000+0 -60171-2 0  9991
2 61255  53.1598  11.5640 0001363  70.6652 295.2262 15.70247433  5502
STARLINK-32431          
1 61256U 24175P   24297.41667824 -.00038051  00000+0 -67899-3 0  9991
2 61256  53.1600  14.0749 0001282  93.9991 297.1122 15.49326676  5654
STARLINK-32432          
1 61257U 24175Q   24297.41667824 -.00031580  00000+0 -56173-3 0  9995
2 61257  53.1600  14.0790 0001246  94.5549 294.6397 15.49324265  5655
STARLINK-32382          
1 61258U 24175R   24297.41667824 -.00041471  00000+0 -74104-3 0  9990
2 61258  53.1599  14.0547 0001311  92.7817 307.9118 15.49327536  5400
STARLINK-32435          
1 61259U 24175S   24297.41667824 -.01541854  00000+0 -34237-1 0  9993
2 61259  53.1600  14.0818 0000983  78.7432 308.8386 15.46200675  5617
STARLINK-32474          
1 61260U 24175T   24297.41667824 -.00030421  00000+0 -54073-3 0  9999
2 61260  53.1599  14.0671 0001348  95.4603 299.4830 15.49324676  5615
STARLINK-32447          
1 61261U 24175U   24297.41667824 -.00030756  00000+0 -54681-3 0  9996
2 61261  53.1600  14.0590 0001286  94.5926 304.1852 15.49323553  5653
STARLINK-32446          
1 61262U 24175V   24297.41667824 -.00202631  00000+0 -37202-2 0  9999
2 61262  53.1600  14.0630 0001328  85.1392 311.7098 15.49385703  5650
2024-174F               
1 61263U 24174F   24297.53217526  .00167057  98975-5  94829-3 0  9995
2 61263  97.4304 304.1045 0154146 284.1209  74.2962 15.63945370  4402
2024-174G               
1 61443U 24174G   24296.95134266  .00619636  13499-3  20939-2 0  9990
2 61443  97.4228 303.8004 0111723 282.4782  76.4004 15.80410761  4141
CZ-2D R/B               
1 61445U 24177B   24297.43063390  .00455941  88918-4  11572-2 0  9997
2 61445  41.3913 355.1701 0016112  83.5884 276.6799 15.94361968  4138
CREW DRAGON 9           
1 61447U 24178A   24296.81522276  .00022878  00000+0  40407-3 0  9994
2 61447  51.6395  43.2315 0009124  94.8327 265.3704 15.50216419  3385
VULCAN CENTAUR R/B      
1 61448U 24179A   24278.48676111  .00000148  00000+0  00000+0 0  9994
2 61448  30.0000 357.3088 0004000 321.8000 177.5900 15.23529867    07
CYSAT-1                 
1 61501U 98067WZ  24297.30649980  .00133724  00000+0  19656-2 0  9994
2 61501  51.6376  40.5118 0007661 100.4779 259.7075 15.54487248  2353
DORA                    
1 61502U 98067XA  24296.78359108  .00234553  00000+0  31837-2 0  9993
2 61502  51.6377  43.0205 0006732  66.4761 293.6937 15.56274074  2267
HULIANWAN GAOGUI-03 (H*)
1 61503U 24181A   24297.49632744 -.00000249  00000+0  00000+0 0  9998
2 61503   0.0314 319.3412 0001293 278.1860 256.4242  1.00272494   267
CZ-3B R/B               
1 61504U 24181B   24296.90207576  .00125583 -35201-6  26409-2 0  9996
2 61504  28.3971 219.4769 7221393 186.6228 152.0953  2.40428018   291
SJ-19 DEB               
1 61506U 24177D   24297.36452925  .00099906  00000+0  52625-3 0  9994
2 61506  41.6022 357.9893 0010941 116.0754 244.1221 15.79507766  1862
STARLINK-32174          
1 61509U 24183A   24296.91668981 -.00655621  00000+0 -25372-2 0  9997
2 61509  53.1550 334.9420 0000594 100.5014 316.8343 15.88004104  2456
STARLINK-32139          
1 61510U 24183B   24296.91668981 -.00659438  00000+0 -25476-2 0  9994
2 61510  53.1554 334.9392 0000410 102.2688 316.4041 15.88048140  2452
STARLINK-32140          
1 61511U 24183C   24296.91668981 -.00662787  00000+0 -25526-2 0  9992
2 61511  53.1553 334.9345 0000778 323.0872  97.7904 15.88115356  2355
STARLINK-32201          
1 61512U 24183D   24296.91668981 -.00672835  00000+0 -25859-2 0  9997
2 61512  53.1556 334.9305 0000376  74.0203 348.8506 15.88182250  2355
STARLINK-32030          
1 61513U 24183E   24297.50001157 -.00671689  00000+0 -26873-2 0  9993
2 61513  53.1552 331.9748 0000879  87.8233  73.4142 15.87371987  2547
STARLINK-31837          
1 61514U 24183F   24296.91668981 -.00695379  00000+0 -26543-2 0  9998
2 61514  53.1554 334.9184 0000464  99.5863 329.0757 15.88369015  2458
STARLINK-32136          
1 61515U 24183G   24297.50001157 -.00675625  00000+0 -26974-2 0  9991
2 61515  53.1550 331.9709 0000932  88.0614  75.1322 15.87422637  2559
STARLINK-32047          
1 61516U 24183H   24296.91668981 -.00682131  00000+0 -25931-2 0  9992
2 61516  53.1545 334.9144 0000426 106.7623 324.0139 15.88420726  2354
STARLINK-31756          
1 61517U 24183J   24296.91668981 -.00498848  90289-4 -13815-2 0  9994
2 61517  53.1547 334.7805 0000245 328.2062 166.9782 15.93027936  2445
STARLINK-32172          
1 61518U 24183K   24297.50001157 -.00697077  00000+0 -27609-2 0  9995
2 61518  53.1548 331.9541 0000928  88.2167  82.9824 15.87631989  2446
STARLINK-32338          
1 61519U 24183L   24297.58334491 -.00695687  00000+0 -27680-2 0  9998
2 61519  53.1549 331.5300 0000843  67.8670 221.2160 15.87537875  2388
STARLINK-32306          
1 61520U 24183M   24297.50001157 -.00701983  00000+0 -27712-2 0  9995
2 61520  53.1550 331.9485 0000913  85.7875  88.3309 15.87709213  2490
STARLINK-32297          
1 61521U 24183N   24297.50001157 -.00709519  00000+0 -27948-2 0  9990
2 61521  53.1549 331.9436 0000952  71.4642 105.0539 15.87770087  2547
STARLINK-32260          
1 61522U 24183P   24297.58334491 -.00712977  00000+0 -28205-2 0  9998
2 61522  53.1546 331.5172 0000777  83.0241 212.1981 15.87693242  2556
STARLINK-32305          
1 61523U 24183Q   24297.50001157 -.00725908  00000+0 -28422-2 0  9990
2 61523  53.1552 331.9313 0000951  89.6098  93.0077 15.87927663  2448
